ONEWEB-0183             
1 48219U 21031K   25210.83285805  .00000090  00000+0  20718-3 0  9999
2 48219  87.9063 353.8629 0001747 103.0304 257.1020 13.14503473205976
ONEWEB-0185             
1 48220U 21031L   25211.46794900  .00000213  00000+0  53879-3 0  9993
2 48220  87.9066 353.7025 0001441 105.4808 254.6481 13.14502066205987
ONEWEB-0187             
1 48221U 21031M   25211.44800106  .00000148  00000+0  36467-3 0  9999
2 48221  87.9066 353.7531 0001508  95.9566 264.1735 13.14502137205996
ONEWEB-0192             
1 48222U 21031N   25210.88518083 -.00000235  00000+0 -66821-3 0  9993
2 48222  87.9069 353.8575 0001806  93.3252 266.8084 13.14503484205839
ONEWEB-0219             
1 48223U 21031P   25210.94070357  .00000110  00000+0  26094-3 0  9996
2 48223  87.9070 353.8192 0001497  98.4635 261.6665 13.14504250206048
ONEWEB-0202             
1 48224U 21031Q   25211.37836283  .00000281  00000+0  72277-3 0  9996
2 48224  87.9068 353.7464 0001663  70.7567 289.3742 13.14503964206098
ONEWEB-0204             
1 48225U 21031R   25211.41244944 -.00000073  00000+0 -23101-3 0  9992
2 48225  87.9052 353.7349 0001823 106.2064 253.9266 13.14503612205995
ONEWEB-0205             
1 48226U 21031S   25210.85505393  .00000214  00000+0  54336-3 0  9997
2 48226  87.9068 353.8339 0001595  97.1171 263.0140 13.14501385205927
ONEWEB-0206             
1 48227U 21031T   25210.90420882 -.00000010  00000+0 -60097-4 0  9991
2 48227  87.9064 353.8035 0001734  98.2985 261.8341 13.14504176205882
ONEWEB-0182             
1 48228U 21031U   25210.89946838 -.00000062  00000+0 -20234-3 0  9999
2 48228  87.9064 353.8490 0001801 104.2615 255.8715 13.14502855206095
ONEWEB-0186             
1 48229U 21031V   25210.91055516  .00000078  00000+0  17512-3 0  9997
2 48229  87.9065 353.8079 0001708  95.9697 264.1627 13.14501665206040
ONEWEB-0181             
1 48230U 21031W   25210.96446474 -.00000247  00000+0 -70045-3 0  9991
2 48230  87.9069 353.8694 0001726  92.0958 268.0369 13.14504084205916
ONEWEB-0188             
1 48231U 21031X   25210.85029888  .00000209  00000+0  52808-3 0  9999
2 48231  87.9068 353.8828 0001759  97.8607 262.2723 13.14503758205798
ONEWEB-0220             
1 48232U 21031Y   25210.88994589 -.00000205  00000+0 -58683-3 0  9997
2 48232  87.9060 353.8153 0001575  99.2377 260.8931 13.14502492206068
ONEWEB-0165             
1 48233U 21031Z   25210.84236562  .00000261  00000+0  66885-3 0  9997
2 48233  87.9066 353.8686 0001563  95.8100 264.3207 13.14502303206010
ONEWEB-0199             
1 48234U 21031AA  25210.90262613 -.00000060  00000+0 -19574-3 0  9993
2 48234  87.9065 353.8200 0001962  97.4948 262.6404 13.14503822205929
ONEWEB-0203             
1 48235U 21031AB  25211.42593572 -.00000136  00000+0 -40201-3 0  9998
2 48235  87.9065 353.7190 0001955  89.6007 270.5347 13.14501847206007
