[{"OBJECT_NAME":"ONEWEB-0183","OBJECT_ID":"2021-031K","EPOCH":"2025-07-29T19:59:18.935520","MEAN_MOTION":13.14503473,"ECCENTRICITY":0.0001747,"INCLINATION":87.9063,"RA_OF_ASC_NODE":353.8629,"ARG_OF_PERICENTER":103.0304,"MEAN_ANOMALY":257.102,"EPHEMERIS_TYPE":0,"CLASSIFICATION_TYPE":"U","NORAD_CAT_ID":48219,"ELEMENT_SET_NO":999,"REV_AT_EPOCH":20597,"BSTAR":0.00020718,"MEAN_MOTION_DOT":9.0e-7,"MEAN_MOTION_DDOT":0},{"OBJECT_NAME":"ONEWEB-0185","OBJECT_ID":"2021-031L","EPOCH":"2025-07-30T11:13:50.793600","MEAN_MOTION":13.14502066,"ECCENTRICITY":0.0001441,"INCLINATION":87.9066,"RA_OF_ASC_NODE":353.7025,"ARG_OF_PERICENTER":105.4808,"MEAN_ANOMALY":254.6481,"EPHEMERIS_TYPE":0,"CLASSIFICATION_TYPE":"U","NORAD_CAT_ID":48220,"ELEMENT_SET_NO":999,"REV_AT_EPOCH":20598,"BSTAR":0.00053879,"MEAN_MOTION_DOT":2.13e-6,"MEAN_MOTION_DDOT":0},{"OBJECT_NAME":"ONEWEB-0187","OBJECT_ID":"2021-031M","EPOCH":"2025-07-30T10:45:07.291584","MEAN_MOTION":13.14502137,"ECCENTRICITY":0.0001508,"INCLINATION":87.9066,"RA_OF_ASC_NODE":353.7531,"ARG_OF_PERICENTER":95.9566,"MEAN_ANOMALY":264.1735,"EPHEMERIS_TYPE":0,"CLASSIFICATION_TYPE":"U","NORAD_CAT_ID":48221,"ELEMENT_SET_NO":999,"REV_AT_EPOCH":20599,"BSTAR":0.00036467,"MEAN_MOTION_DOT":1.48e-6,"MEAN_MOTION_DDOT":0},{"OBJECT_NAME":"ONEWEB-0192","OBJECT_ID":"2021-031N","EPOCH":"2025-07-29T21:14:39.623712","MEAN_MOTION":13.14503484,"ECCENTRICITY":0.0001806,"INCLINATION":87.9069,"RA_OF_ASC_NODE":353.8575,"ARG_OF_PERICENTER":93.3252,"MEAN_ANOMALY":266.8084,"EPHEMERIS_TYPE":0,"CLASSIFICATION_TYPE":"U","NORAD_CAT_ID":48222,"ELEMENT_SET_NO":999,"REV_AT_EPOCH":20583,"BSTAR":-0.00066821,"MEAN_MOTION_DOT":-2.35e-6,"MEAN_MOTION_DDOT":0},{"OBJECT_NAME":"ONEWEB-0219","OBJECT_ID":"2021-031P","EPOCH":"2025-07-29T22:34:36.788448","MEAN_MOTION":13.1450425,"ECCENTRICITY":0.0001497,"INCLINATION":87.907,"RA_OF_ASC_NODE":353.8192,"ARG_OF_PERICENTER":98.4635,"MEAN_ANOMALY":261.6665,"EPHEMERIS_TYPE":0,"CLASSIFICATION_TYPE":"U","NORAD_CAT_ID":48223,"ELEMENT_SET_NO":999,"REV_AT_EPOCH":20604,"BSTAR":0.00026094,"MEAN_MOTION_DOT":1.1e-6,"MEAN_MOTION_DDOT":0},{"OBJECT_NAME":"ONEWEB-0202","OBJECT_ID":"2021-031Q","EPOCH":"2025-07-30T09:04:50.548512","MEAN_MOTION":13.14503964,"ECCENTRICITY":0.0001663,"INCLINATION":87.9068,"RA_OF_ASC_NODE":353.7464,"ARG_OF_PERICENTER":70.7567,"MEAN_ANOMALY":289.3742,"EPHEMERIS_TYPE":0,"CLASSIFICATION_TYPE":"U","NORAD_CAT_ID":48224,"ELEMENT_SET_NO":999,"REV_AT_EPOCH":20609,"BSTAR":0.00072277,"MEAN_MOTION_DOT":2.81e-6,"MEAN_MOTION_DDOT":0},{"OBJECT_NAME":"ONEWEB-0204","OBJECT_ID":"2021-031R","EPOCH":"2025-07-30T09:53:55.631616","MEAN_MOTION":13.14503612,"ECCENTRICITY":0.0001823,"INCLINATION":87.9052,"RA_OF_ASC_NODE":353.7349,"ARG_OF_PERICENTER":106.2064,"MEAN_ANOMALY":253.9266,"EPHEMERIS_TYPE":0,"CLASSIFICATION_TYPE":"U","NORAD_CAT_ID":48225,"ELEMENT_SET_NO":999,"REV_AT_EPOCH":20599,"BSTAR":-0.00023101,"MEAN_MOTION_DOT":-7.3e-7,"MEAN_MOTION_DDOT":0},{"OBJECT_NAME":"ONEWEB-0205","OBJECT_ID":"2021-031S","EPOCH":"2025-07-29T20:31:16.659552","MEAN_MOTION":13.14501385,"ECCENTRICITY":0.0001595,"INCLINATION":87.9068,"RA_OF_ASC_NODE":353.8339,"ARG_OF_PERICENTER":97.1171,"MEAN_ANOMALY":263.014,"EPHEMERIS_TYPE":0,"CLASSIFICATION_TYPE":"U","NORAD_CAT_ID":48226,"ELEMENT_SET_NO":999,"REV_AT_EPOCH":20592,"BSTAR":0.00054336,"MEAN_MOTION_DOT":2.14e-6,"MEAN_MOTION_DDOT":0},{"OBJECT_NAME":"ONEWEB-0206","OBJECT_ID":"2021-031T","EPOCH":"2025-07-29T21:42:03.642048","MEAN_MOTION":13.14504176,"ECCENTRICITY":0.0001734,"INCLINATION":87.9064,"RA_OF_ASC_NODE":353.8035,"ARG_OF_PERICENTER":98.2985,"MEAN_ANOMALY":261.8341,"EPHEMERIS_TYPE":0,"CLASSIFICATION_TYPE":"U","NORAD_CAT_ID":48227,"ELEMENT_SET_NO":999,"REV_AT_EPOCH":20588,"BSTAR":-6.0097e-5,"MEAN_MOTION_DOT":-1.0e-7,"MEAN_MOTION_DDOT":0},{"OBJECT_NAME":"ONEWEB-0182","OBJECT_ID":"2021-031U","EPOCH":"2025-07-29T21:35:14.068032","MEAN_MOTION":13.14502855,"ECCENTRICITY":0.0001801,"INCLINATION":87.9064,"RA_OF_ASC_NODE":353.849,"ARG_OF_PERICENTER":104.2615,"MEAN_ANOMALY":255.8715,"EPHEMERIS_TYPE":0,"CLASSIFICATION_TYPE":"U","NORAD_CAT_ID":48228,"ELEMENT_SET_NO":999,"REV_AT_EPOCH":20609,"BSTAR":-0.00020234,"MEAN_MOTION_DOT":-6.2e-7,"MEAN_MOTION_DDOT":0},{"OBJECT_NAME":"ONEWEB-0186","OBJECT_ID":"2021-031V","EPOCH":"2025-07-29T21:51:11.965824","MEAN_MOTION":13.14501665,"ECCENTRICITY":0.0001708,"INCLINATION":87.9065,"RA_OF_ASC_NODE":353.8079,"ARG_OF_PERICENTER":95.9697,"MEAN_ANOMALY":264.1627,"EPHEMERIS_TYPE":0,"CLASSIFICATION_TYPE":"U","NORAD_CAT_ID":48229,"ELEMENT_SET_NO":999,"REV_AT_EPOCH":20604,"BSTAR":0.00017512,"MEAN_MOTION_DOT":7.8e-7,"MEAN_MOTION_DDOT":0},{"OBJECT_NAME":"ONEWEB-0181","OBJECT_ID":"2021-031W","EPOCH":"2025-07-29T23:08:49.753536","MEAN_MOTION":13.14504084,"ECCENTRICITY":0.0001726,"INCLINATION":87.9069,"RA_OF_ASC_NODE":353.8694,"ARG_OF_PERICENTER":92.0958,"MEAN_ANOMALY":268.0369,"EPHEMERIS_TYPE":0,"CLASSIFICATION_TYPE":"U","NORAD_CAT_ID":48230,"ELEMENT_SET_NO":999,"REV_AT_EPOCH":20591,"BSTAR":-0.00070045,"MEAN_MOTION_DOT":-2.47e-6,"MEAN_MOTION_DDOT":0},{"OBJECT_NAME":"ONEWEB-0188","OBJECT_ID":"2021-031X","EPOCH":"2025-07-29T20:24:25.823232","MEAN_MOTION":13.14503758,"ECCENTRICITY":0.0001759,"INCLINATION":87.9068,"RA_OF_ASC_NODE":353.8828,"ARG_OF_PERICENTER":97.8607,"MEAN_ANOMALY":262.2723,"EPHEMERIS_TYPE":0,"CLASSIFICATION_TYPE":"U","NORAD_CAT_ID":48231,"ELEMENT_SET_NO":999,"REV_AT_EPOCH":20579,"BSTAR":0.00052808,"MEAN_MOTION_DOT":2.09e-6,"MEAN_MOTION_DDOT":0},{"OBJECT_NAME":"ONEWEB-0220","OBJECT_ID":"2021-031Y","EPOCH":"2025-07-29T21:21:31.324896","MEAN_MOTION":13.14502492,"ECCENTRICITY":0.0001575,"INCLINATION":87.906,"RA_OF_ASC_NODE":353.8153,"ARG_OF_PERICENTER":99.2377,"MEAN_ANOMALY":260.8931,"EPHEMERIS_TYPE":0,"CLASSIFICATION_TYPE":"U","NORAD_CAT_ID":48232,"ELEMENT_SET_NO":999,"REV_AT_EPOCH":20606,"BSTAR":-0.00058683,"MEAN_MOTION_DOT":-2.05e-6,"MEAN_MOTION_DDOT":0},{"OBJECT_NAME":"ONEWEB-0165","OBJECT_ID":"2021-031Z","EPOCH":"2025-07-29T20:13:00.389568","MEAN_MOTION":13.14502303,"ECCENTRICITY":0.0001563,"INCLINATION":87.9066,"RA_OF_ASC_NODE":353.8686,"ARG_OF_PERICENTER":95.81,"MEAN_ANOMALY":264.3207,"EPHEMERIS_TYPE":0,"CLASSIFICATION_TYPE":"U","NORAD_CAT_ID":48233,"ELEMENT_SET_NO":999,"REV_AT_EPOCH":20601,"BSTAR":0.00066885,"MEAN_MOTION_DOT":2.61e-6,"MEAN_MOTION_DDOT":0},{"OBJECT_NAME":"ONEWEB-0199","OBJECT_ID":"2021-031AA","EPOCH":"2025-07-29T21:39:46.897632","MEAN_MOTION":13.14503822,"ECCENTRICITY":0.0001962,"INCLINATION":87.9065,"RA_OF_ASC_NODE":353.82,"ARG_OF_PERICENTER":97.4948,"MEAN_ANOMALY":262.6404,"EPHEMERIS_TYPE":0,"CLASSIFICATION_TYPE":"U","NORAD_CAT_ID":48234,"ELEMENT_SET_NO":999,"REV_AT_EPOCH":20592,"BSTAR":-0.00019574,"MEAN_MOTION_DOT":-6.0e-7,"MEAN_MOTION_DDOT":0},{"OBJECT_NAME":"ONEWEB-0203","OBJECT_ID":"2021-031AB","EPOCH":"2025-07-30T10:13:20.846208","MEAN_MOTION":13.14501847,"ECCENTRICITY":0.0001955,"INCLINATION":87.9065,"RA_OF_ASC_NODE":353.719,"ARG_OF_PERICENTER":89.6007,"MEAN_ANOMALY":270.5347,"EPHEMERIS_TYPE":0,"CLASSIFICATION_TYPE":"U","NORAD_CAT_ID":48235,"ELEMENT_SET_NO":999,"REV_AT_EPOCH":20600,"BSTAR":-0.00040201,"MEAN_MOTION_DOT":-1.36e-6,"MEAN_MOTION_DDOT":0}]
